0 SL-8 DEB
1 38667U 74071E   13279.08322064  .00000097  00000-0  42730-4 0   599
2 38667 074.0521 188.6551 0020267 070.1698 290.1690 14.35213012553139
0 SL-8 DEB
1 38667U 74071E   13284.38072539  .00000106  00000-0  46051-4 0   600
2 38667 074.0517 178.9528 0020228 059.1487 301.1728 14.35214646553892
0 SL-8 DEB
1 38667U 74071E   13292.32696653  .00000138  00000-0  57327-4 0   616
2 38667 074.0498 164.3958 0019862 040.0615 320.2306 14.35218029555031
